{
  "type": "FeatureCollection",
  "features": [
    {
      "type": "Feature",
      "properties": {
        "norad_id": 29798,
        "name": "FENGYUN 1C DEB",
        "group": "fengyun-1c-debris",
        "lat": -2.0083360620678783,
        "lon": 53.43897421155933,
        "alt_km": 900.6383110337047,
        "timestamp": "2025-12-15T04:01:20.722871+00:00",
        "meta_object_name": "FENGYUN 1C DEB",
        "meta_object_id": "1999-025CQ",
        "meta_epoch": "2025-12-14T04:07:30.077760",
        "meta_mean_motion": 13.99578403,
        "meta_eccentricity": 0.0111664,
        "meta_inclination": 99.2954,
        "meta_ra_of_asc_node": 52.0992,
        "meta_arg_of_pericenter": 268.5596,
        "meta_mean_anomaly": 114.0146,
        "meta_ephemeris_type": 0,
        "meta_classification_type": "U",
        "meta_norad_cat_id": 29798,
        "meta_element_set_no": 999,
        "meta_rev_at_epoch": 95945,
        "meta_bstar": 0.0017376546,
        "meta_mean_motion_dot": 2.63e-05,
        "meta_mean_motion_ddot": 0,
        "tle_line1": "1 29798U 99025CQ  25348.17187590  .00002630  00000+0  17377-2 0  9997",
        "tle_line2": "2 29798  99.2954  52.0992 0111664 268.5596 114.0146 13.99578403959450"
      },
      "geometry": {
        "type": "Point",
        "coordinates": [
          53.43897421155933,
          -2.0083360620678783
        ]
      }
    },
    {
      "type": "Feature",
      "properties": {
        "norad_id": 29800,
        "name": "FENGYUN 1C DEB",
        "group": "fengyun-1c-debris",
        "lat": 25.553518296003997,
        "lon": -165.46565215491404,
        "alt_km": 857.8676350750875,
        "timestamp": "2025-12-15T04:01:20.722882+00:00",
        "meta_object_name": "FENGYUN 1C DEB",
        "meta_object_id": "1999-025CS",
        "meta_epoch": "2025-12-13T23:57:39.892032",
        "meta_mean_motion": 13.98573061,
        "meta_eccentricity": 0.01337285,
        "meta_inclination": 98.2836,
        "meta_ra_of_asc_node": 9.4833,
        "meta_arg_of_pericenter": 223.8083,
        "meta_mean_anomaly": 168.0457,
        "meta_ephemeris_type": 0,
        "meta_classification_type": "U",
        "meta_norad_cat_id": 29800,
        "meta_element_set_no": 999,
        "meta_rev_at_epoch": 95594,
        "meta_bstar": 0.0022787824,
        "meta_mean_motion_dot": 3.49e-05,
        "meta_mean_motion_ddot": 0,
        "tle_line1": "1 29800U 99025CS  25347.99837838  .00003490  00000+0  22788-2 0  9994",
        "tle_line2": "2 29800  98.2836   9.4833 0133728 223.8083 168.0457 13.98573061955940"
      },
      "geometry": {
        "type": "Point",
        "coordinates": [
          -165.46565215491404,
          25.553518296003997
        ]
      }
    },
    {
      "type": "Feature",
      "properties": {
        "norad_id": 29801,
        "name": "FENGYUN 1C DEB",
        "group": "fengyun-1c-debris",
        "lat": 45.95565323122033,
        "lon": -118.97112993913561,
        "alt_km": 829.1595436560829,
        "timestamp": "2025-12-15T04:01:20.722892+00:00",
        "meta_object_name": "FENGYUN 1C DEB",
        "meta_object_id": "1999-025CT",
        "meta_epoch": "2025-12-14T06:37:23.215296",
        "meta_mean_motion": 14.35899324,
        "meta_eccentricity": 0.01028033,
        "meta_inclination": 98.7949,
        "meta_ra_of_asc_node": 249.3304,
        "meta_arg_of_pericenter": 262.8099,
        "meta_mean_anomaly": 216.8175,
        "meta_ephemeris_type": 0,
        "meta_classification_type": "U",
        "meta_norad_cat_id": 29801,
        "meta_element_set_no": 999,
        "meta_rev_at_epoch": 98963,
        "meta_bstar": 0.00024989524,
        "meta_mean_motion_dot": 7.21e-06,
        "meta_mean_motion_ddot": 0,
        "tle_line1": "1 29801U 99025CT  25348.27596314  .00000721  00000+0  24990-3 0  9990",
        "tle_line2": "2 29801  98.7949 249.3304 0102803 262.8099 216.8175 14.35899324989636"
      },
      "geometry": {
        "type": "Point",
        "coordinates": [
          -118.97112993913561,
          45.95565323122033
        ]
      }
    },
    {
      "type": "Feature",
      "properties": {
        "norad_id": 29802,
        "name": "FENGYUN 1C DEB",
        "group": "fengyun-1c-debris",
        "lat": -76.0497753631942,
        "lon": -119.24512860953021,
        "alt_km": 684.7153989274584,
        "timestamp": "2025-12-15T04:01:20.722903+00:00",
        "meta_object_name": "FENGYUN 1C DEB",
        "meta_object_id": "1999-025CU",
        "meta_epoch": "2025-12-14T07:24:27.708192",
        "meta_mean_motion": 14.62378644,
        "meta_eccentricity": 0.00370494,
        "meta_inclination": 98.619,
        "meta_ra_of_asc_node": 97.4916,
        "meta_arg_of_pericenter": 333.9941,
        "meta_mean_anomaly": 86.0164,
        "meta_ephemeris_type": 0,
        "meta_classification_type": "U",
        "meta_norad_cat_id": 29802,
        "meta_element_set_no": 999,
        "meta_rev_at_epoch": 98496,
        "meta_bstar": 0.0028489883,
        "meta_mean_motion_dot": 0.0001452,
        "meta_mean_motion_ddot": 0,
        "tle_line1": "1 29802U 99025CU  25348.30865403  .00014520  00000+0  28490-2 0  9993",
        "tle_line2": "2 29802  98.6190  97.4916 0037049 333.9941  86.0164 14.62378644984963"
      },
      "geometry": {
        "type": "Point",
        "coordinates": [
          -119.24512860953021,
          -76.0497753631942
        ]
      }
    },
    {
      "type": "Feature",
      "properties": {
        "norad_id": 29804,
        "name": "FENGYUN 1C DEB",
        "group": "fengyun-1c-debris",
        "lat": 79.12834444497385,
        "lon": -56.507001279548845,
        "alt_km": 931.4449581247436,
        "timestamp": "2025-12-15T04:01:20.722913+00:00",
        "meta_object_name": "FENGYUN 1C DEB",
        "meta_object_id": "1999-025CW",
        "meta_epoch": "2025-12-14T07:10:43.581792",
        "meta_mean_motion": 14.04323406,
        "meta_eccentricity": 0.00971032,
        "meta_inclination": 98.8054,
        "meta_ra_of_asc_node": 356.461,
        "meta_arg_of_pericenter": 297.4606,
        "meta_mean_anomaly": 77.3202,
        "meta_ephemeris_type": 0,
        "meta_classification_type": "U",
        "meta_norad_cat_id": 29804,
        "meta_element_set_no": 999,
        "meta_rev_at_epoch": 96916,
        "meta_bstar": 0.00011097216,
        "meta_mean_motion_dot": 1.4e-06,
        "meta_mean_motion_ddot": 0,
        "tle_line1": "1 29804U 99025CW  25348.29911553  .00000140  00000+0  11097-3 0  9990",
        "tle_line2": "2 29804  98.8054 356.4610 0097103 297.4606  77.3202 14.04323406969167"
      },
      "geometry": {
        "type": "Point",
        "coordinates": [
          -56.507001279548845,
          79.12834444497385
        ]
      }
    },
    {
      "type": "Feature",
      "properties": {
        "norad_id": 29805,
        "name": "FENGYUN 1C DEB",
        "group": "fengyun-1c-debris",
        "lat": -29.4285923890463,
        "lon": 45.80207660049218,
        "alt_km": 1033.4475388020346,
        "timestamp": "2025-12-15T04:01:20.722923+00:00",
        "meta_object_name": "FENGYUN 1C DEB",
        "meta_object_id": "1999-025CX",
        "meta_epoch": "2025-12-14T01:55:47.182944",
        "meta_mean_motion": 13.72657639,
        "meta_eccentricity": 0.01880432,
        "meta_inclination": 99.455,
        "meta_ra_of_asc_node": 39.3349,
        "meta_arg_of_pericenter": 226.2696,
        "meta_mean_anomaly": 132.275,
        "meta_ephemeris_type": 0,
        "meta_classification_type": "U",
        "meta_norad_cat_id": 29805,
        "meta_element_set_no": 999,
        "meta_rev_at_epoch": 94721,
        "meta_bstar": 0.00021633031,
        "meta_mean_motion_dot": 1.8e-06,
        "meta_mean_motion_ddot": 0,
        "tle_line1": "1 29805U 99025CX  25348.08040721  .00000180  00000+0  21633-3 0  9999",
        "tle_line2": "2 29805  99.4550  39.3349 0188043 226.2696 132.2750 13.72657639947218"
      },
      "geometry": {
        "type": "Point",
        "coordinates": [
          45.80207660049218,
          -29.4285923890463
        ]
      }
    },
    {
      "type": "Feature",
      "properties": {
        "norad_id": 29806,
        "name": "FENGYUN 1C DEB",
        "group": "fengyun-1c-debris",
        "lat": 21.676965314699125,
        "lon": -171.6172241597071,
        "alt_km": 851.0863682930785,
        "timestamp": "2025-12-15T04:01:20.722933+00:00",
        "meta_object_name": "FENGYUN 1C DEB",
        "meta_object_id": "1999-025CY",
        "meta_epoch": "2025-12-14T06:55:26.635872",
        "meta_mean_motion": 14.12009934,
        "meta_eccentricity": 0.00276474,
        "meta_inclination": 98.7128,
        "meta_ra_of_asc_node": 4.0342,
        "meta_arg_of_pericenter": 247.3573,
        "meta_mean_anomaly": 124.7429,
        "meta_ephemeris_type": 0,
        "meta_classification_type": "U",
        "meta_norad_cat_id": 29806,
        "meta_element_set_no": 999,
        "meta_rev_at_epoch": 97161,
        "meta_bstar": 0.0006654178,
        "meta_mean_motion_dot": 1.18e-05,
        "meta_mean_motion_ddot": 0,
        "tle_line1": "1 29806U 99025CY  25348.28850273  .00001180  00000+0  66542-3 0  9992",
        "tle_line2": "2 29806  98.7128   4.0342 0027647 247.3573 124.7429 14.12009934971618"
      },
      "geometry": {
        "type": "Point",
        "coordinates": [
          -171.6172241597071,
          21.676965314699125
        ]
      }
    }
  ]
}